<?xml version="1.0" encoding="UTF-8"?>
<ndm xmlns:xsi="http://www.w3.org/2001/XMLSchema-instance" xsi:noNamespaceSchemaLocation="https://sanaregistry.org/r/ndmxml_unqualified/ndmxml-2.0.0-master-2.0.xsd">
<omm id="CCSDS_OMM_VERS" version="2.0">
<header><CREATION_DATE/><ORIGINATOR/></header><body><segment><metadata><OBJECT_NAME>KUIPER-00058</OBJECT_NAME><OBJECT_ID>2025-134U</OBJECT_ID><CENTER_NAME>EARTH</CENTER_NAME><REF_FRAME>TEME</REF_FRAME><TIME_SYSTEM>UTC</TIME_SYSTEM><MEAN_ELEMENT_THEORY>SGP4</MEAN_ELEMENT_THEORY></metadata><data><meanElements><EPOCH>2025-10-01T08:00:03.000384</EPOCH><MEAN_MOTION>15.08088402</MEAN_MOTION><ECCENTRICITY>.00065988</ECCENTRICITY><INCLINATION>51.9006</INCLINATION><RA_OF_ASC_NODE>212.1456</RA_OF_ASC_NODE><ARG_OF_PERICENTER>125.4718</ARG_OF_PERICENTER><MEAN_ANOMALY>246.0232</MEAN_ANOMALY></meanElements><tleParameters><EPHEMERIS_TYPE>0</EPHEMERIS_TYPE><CLASSIFICATION_TYPE>U</CLASSIFICATION_TYPE><NORAD_CAT_ID>64518</NORAD_CAT_ID><ELEMENT_SET_NO>999</ELEMENT_SET_NO><REV_AT_EPOCH>554</REV_AT_EPOCH><BSTAR>-.63181974E-1</BSTAR><MEAN_MOTION_DOT>-.913209E-2</MEAN_MOTION_DOT><MEAN_MOTION_DDOT>0</MEAN_MOTION_DDOT></tleParameters></data></segment></body></omm>
<omm id="CCSDS_OMM_VERS" version="2.0">
<header><CREATION_DATE/><ORIGINATOR/></header><body><segment><metadata><OBJECT_NAME>KUIPER-00059</OBJECT_NAME><OBJECT_ID>2025-134V</OBJECT_ID><CENTER_NAME>EARTH</CENTER_NAME><REF_FRAME>TEME</REF_FRAME><TIME_SYSTEM>UTC</TIME_SYSTEM><MEAN_ELEMENT_THEORY>SGP4</MEAN_ELEMENT_THEORY></metadata><data><meanElements><EPOCH>2025-10-01T08:00:03.000384</EPOCH><MEAN_MOTION>15.19334275</MEAN_MOTION><ECCENTRICITY>.00006087</ECCENTRICITY><INCLINATION>51.8864</INCLINATION><RA_OF_ASC_NODE>209.6843</RA_OF_ASC_NODE><ARG_OF_PERICENTER>33.5982</ARG_OF_PERICENTER><MEAN_ANOMALY>109.0891</MEAN_ANOMALY></meanElements><tleParameters><EPHEMERIS_TYPE>0</EPHEMERIS_TYPE><CLASSIFICATION_TYPE>U</CLASSIFICATION_TYPE><NORAD_CAT_ID>64519</NORAD_CAT_ID><ELEMENT_SET_NO>999</ELEMENT_SET_NO><REV_AT_EPOCH>307</REV_AT_EPOCH><BSTAR>-.38010839E-1</BSTAR><MEAN_MOTION_DOT>-.755759E-2</MEAN_MOTION_DOT><MEAN_MOTION_DDOT>0</MEAN_MOTION_DDOT></tleParameters></data></segment></body></omm>
<omm id="CCSDS_OMM_VERS" version="2.0">
<header><CREATION_DATE/><ORIGINATOR/></header><body><segment><metadata><OBJECT_NAME>KUIPER-00060</OBJECT_NAME><OBJECT_ID>2025-134W</OBJECT_ID><CENTER_NAME>EARTH</CENTER_NAME><REF_FRAME>TEME</REF_FRAME><TIME_SYSTEM>UTC</TIME_SYSTEM><MEAN_ELEMENT_THEORY>SGP4</MEAN_ELEMENT_THEORY></metadata><data><meanElements><EPOCH>2025-10-01T08:00:03.000384</EPOCH><MEAN_MOTION>15.17148875</MEAN_MOTION><ECCENTRICITY>.00031129</ECCENTRICITY><INCLINATION>51.8812</INCLINATION><RA_OF_ASC_NODE>209.7439</RA_OF_ASC_NODE><ARG_OF_PERICENTER>107.3928</ARG_OF_PERICENTER><MEAN_ANOMALY>301.8953</MEAN_ANOMALY></meanElements><tleParameters><EPHEMERIS_TYPE>0</EPHEMERIS_TYPE><CLASSIFICATION_TYPE>U</CLASSIFICATION_TYPE><NORAD_CAT_ID>64520</NORAD_CAT_ID><ELEMENT_SET_NO>999</ELEMENT_SET_NO><REV_AT_EPOCH>465</REV_AT_EPOCH><BSTAR>-.38503464E-1</BSTAR><MEAN_MOTION_DOT>-.721334E-2</MEAN_MOTION_DOT><MEAN_MOTION_DDOT>0</MEAN_MOTION_DDOT></tleParameters></data></segment></body></omm>
<omm id="CCSDS_OMM_VERS" version="2.0">
<header><CREATION_DATE/><ORIGINATOR/></header><body><segment><metadata><OBJECT_NAME>KUIPER-00061</OBJECT_NAME><OBJECT_ID>2025-134X</OBJECT_ID><CENTER_NAME>EARTH</CENTER_NAME><REF_FRAME>TEME</REF_FRAME><TIME_SYSTEM>UTC</TIME_SYSTEM><MEAN_ELEMENT_THEORY>SGP4</MEAN_ELEMENT_THEORY></metadata><data><meanElements><EPOCH>2025-10-01T08:00:03.000384</EPOCH><MEAN_MOTION>14.96884900</MEAN_MOTION><ECCENTRICITY>.00077098</ECCENTRICITY><INCLINATION>51.8907</INCLINATION><RA_OF_ASC_NODE>213.5838</RA_OF_ASC_NODE><ARG_OF_PERICENTER>100.1897</ARG_OF_PERICENTER><MEAN_ANOMALY>205.7352</MEAN_ANOMALY></meanElements><tleParameters><EPHEMERIS_TYPE>0</EPHEMERIS_TYPE><CLASSIFICATION_TYPE>U</CLASSIFICATION_TYPE><NORAD_CAT_ID>64521</NORAD_CAT_ID><ELEMENT_SET_NO>999</ELEMENT_SET_NO><REV_AT_EPOCH>461</REV_AT_EPOCH><BSTAR>.38779422E-2</BSTAR><MEAN_MOTION_DOT>.45029E-3</MEAN_MOTION_DOT><MEAN_MOTION_DDOT>0</MEAN_MOTION_DDOT></tleParameters></data></segment></body></omm>
<omm id="CCSDS_OMM_VERS" version="2.0">
<header><CREATION_DATE/><ORIGINATOR/></header><body><segment><metadata><OBJECT_NAME>KUIPER-00062</OBJECT_NAME><OBJECT_ID>2025-134Y</OBJECT_ID><CENTER_NAME>EARTH</CENTER_NAME><REF_FRAME>TEME</REF_FRAME><TIME_SYSTEM>UTC</TIME_SYSTEM><MEAN_ELEMENT_THEORY>SGP4</MEAN_ELEMENT_THEORY></metadata><data><meanElements><EPOCH>2025-10-01T08:00:03.000384</EPOCH><MEAN_MOTION>14.90786532</MEAN_MOTION><ECCENTRICITY>.00085064</ECCENTRICITY><INCLINATION>51.8939</INCLINATION><RA_OF_ASC_NODE>220.2456</RA_OF_ASC_NODE><ARG_OF_PERICENTER>121.5491</ARG_OF_PERICENTER><MEAN_ANOMALY>238.1477</MEAN_ANOMALY></meanElements><tleParameters><EPHEMERIS_TYPE>0</EPHEMERIS_TYPE><CLASSIFICATION_TYPE>U</CLASSIFICATION_TYPE><NORAD_CAT_ID>64522</NORAD_CAT_ID><ELEMENT_SET_NO>999</ELEMENT_SET_NO><REV_AT_EPOCH>573</REV_AT_EPOCH><BSTAR>-.19470596E+0</BSTAR><MEAN_MOTION_DOT>-.1760483E-1</MEAN_MOTION_DOT><MEAN_MOTION_DDOT>0</MEAN_MOTION_DDOT></tleParameters></data></segment></body></omm>
<omm id="CCSDS_OMM_VERS" version="2.0">
<header><CREATION_DATE/><ORIGINATOR/></header><body><segment><metadata><OBJECT_NAME>KUIPER-00063</OBJECT_NAME><OBJECT_ID>2025-134Z</OBJECT_ID><CENTER_NAME>EARTH</CENTER_NAME><REF_FRAME>TEME</REF_FRAME><TIME_SYSTEM>UTC</TIME_SYSTEM><MEAN_ELEMENT_THEORY>SGP4</MEAN_ELEMENT_THEORY></metadata><data><meanElements><EPOCH>2025-10-01T05:53:44.861568</EPOCH><MEAN_MOTION>14.79675711</MEAN_MOTION><ECCENTRICITY>.00043966</ECCENTRICITY><INCLINATION>51.9011</INCLINATION><RA_OF_ASC_NODE>223.0392</RA_OF_ASC_NODE><ARG_OF_PERICENTER>67.6502</ARG_OF_PERICENTER><MEAN_ANOMALY>292.4926</MEAN_ANOMALY></meanElements><tleParameters><EPHEMERIS_TYPE>0</EPHEMERIS_TYPE><CLASSIFICATION_TYPE>U</CLASSIFICATION_TYPE><NORAD_CAT_ID>64523</NORAD_CAT_ID><ELEMENT_SET_NO>999</ELEMENT_SET_NO><REV_AT_EPOCH>1639</REV_AT_EPOCH><BSTAR>.11361568E-2</BSTAR><MEAN_MOTION_DOT>.8399E-4</MEAN_MOTION_DOT><MEAN_MOTION_DDOT>0</MEAN_MOTION_DDOT></tleParameters></data></segment></body></omm>
<omm id="CCSDS_OMM_VERS" version="2.0">
<header><CREATION_DATE/><ORIGINATOR/></header><body><segment><metadata><OBJECT_NAME>KUIPER-00064</OBJECT_NAME><OBJECT_ID>2025-134AA</OBJECT_ID><CENTER_NAME>EARTH</CENTER_NAME><REF_FRAME>TEME</REF_FRAME><TIME_SYSTEM>UTC</TIME_SYSTEM><MEAN_ELEMENT_THEORY>SGP4</MEAN_ELEMENT_THEORY></metadata><data><meanElements><EPOCH>2025-10-01T03:51:07.684704</EPOCH><MEAN_MOTION>14.79228526</MEAN_MOTION><ECCENTRICITY>.00060699</ECCENTRICITY><INCLINATION>51.9004</INCLINATION><RA_OF_ASC_NODE>220.6194</RA_OF_ASC_NODE><ARG_OF_PERICENTER>179.0318</ARG_OF_PERICENTER><MEAN_ANOMALY>181.0657</MEAN_ANOMALY></meanElements><tleParameters><EPHEMERIS_TYPE>0</EPHEMERIS_TYPE><CLASSIFICATION_TYPE>U</CLASSIFICATION_TYPE><NORAD_CAT_ID>64524</NORAD_CAT_ID><ELEMENT_SET_NO>999</ELEMENT_SET_NO><REV_AT_EPOCH>1642</REV_AT_EPOCH><BSTAR>.17147359E-2</BSTAR><MEAN_MOTION_DOT>.12662E-3</MEAN_MOTION_DOT><MEAN_MOTION_DDOT>0</MEAN_MOTION_DDOT></tleParameters></data></segment></body></omm>
<omm id="CCSDS_OMM_VERS" version="2.0">
<header><CREATION_DATE/><ORIGINATOR/></header><body><segment><metadata><OBJECT_NAME>KUIPER-00065</OBJECT_NAME><OBJECT_ID>2025-134AB</OBJECT_ID><CENTER_NAME>EARTH</CENTER_NAME><REF_FRAME>TEME</REF_FRAME><TIME_SYSTEM>UTC</TIME_SYSTEM><MEAN_ELEMENT_THEORY>SGP4</MEAN_ELEMENT_THEORY></metadata><data><meanElements><EPOCH>2025-10-01T06:37:52.991328</EPOCH><MEAN_MOTION>14.80311695</MEAN_MOTION><ECCENTRICITY>.00128867</ECCENTRICITY><INCLINATION>51.8989</INCLINATION><RA_OF_ASC_NODE>225.1276</RA_OF_ASC_NODE><ARG_OF_PERICENTER>115.0912</ARG_OF_PERICENTER><MEAN_ANOMALY>245.1390</MEAN_ANOMALY></meanElements><tleParameters><EPHEMERIS_TYPE>0</EPHEMERIS_TYPE><CLASSIFICATION_TYPE>U</CLASSIFICATION_TYPE><NORAD_CAT_ID>64525</NORAD_CAT_ID><ELEMENT_SET_NO>999</ELEMENT_SET_NO><REV_AT_EPOCH>1635</REV_AT_EPOCH><BSTAR>.29129073E-1</BSTAR><MEAN_MOTION_DOT>.231955E-2</MEAN_MOTION_DOT><MEAN_MOTION_DDOT>0</MEAN_MOTION_DDOT></tleParameters></data></segment></body></omm>
<omm id="CCSDS_OMM_VERS" version="2.0">
<header><CREATION_DATE/><ORIGINATOR/></header><body><segment><metadata><OBJECT_NAME>KUIPER-00066</OBJECT_NAME><OBJECT_ID>2025-134AC</OBJECT_ID><CENTER_NAME>EARTH</CENTER_NAME><REF_FRAME>TEME</REF_FRAME><TIME_SYSTEM>UTC</TIME_SYSTEM><MEAN_ELEMENT_THEORY>SGP4</MEAN_ELEMENT_THEORY></metadata><data><meanElements><EPOCH>2025-10-01T03:28:00.802272</EPOCH><MEAN_MOTION>15.17576918</MEAN_MOTION><ECCENTRICITY>.00055774</ECCENTRICITY><INCLINATION>51.8879</INCLINATION><RA_OF_ASC_NODE>215.9747</RA_OF_ASC_NODE><ARG_OF_PERICENTER>110.7709</ARG_OF_PERICENTER><MEAN_ANOMALY>249.3867</MEAN_ANOMALY></meanElements><tleParameters><EPHEMERIS_TYPE>0</EPHEMERIS_TYPE><CLASSIFICATION_TYPE>U</CLASSIFICATION_TYPE><NORAD_CAT_ID>64526</NORAD_CAT_ID><ELEMENT_SET_NO>999</ELEMENT_SET_NO><REV_AT_EPOCH>1648</REV_AT_EPOCH><BSTAR>.15956541E-2</BSTAR><MEAN_MOTION_DOT>.32309E-3</MEAN_MOTION_DOT><MEAN_MOTION_DDOT>0</MEAN_MOTION_DDOT></tleParameters></data></segment></body></omm>

</ndm>
